[{"OBJECT_NAME":"ONEWEB-0275","OBJECT_ID":"2021-060AC","EPOCH":"2025-11-08T03:42:08.239392","MEAN_MOTION":13.16596904,"ECCENTRICITY":0.0001931,"INCLINATION":87.9005,"RA_OF_ASC_NODE":272.7975,"ARG_OF_PERICENTER":85.9709,"MEAN_ANOMALY":274.1643,"EPHEMERIS_TYPE":0,"CLASSIFICATION_TYPE":"U","NORAD_CAT_ID":48993,"ELEMENT_SET_NO":999,"REV_AT_EPOCH":21047,"BSTAR":-9.7637e-5,"MEAN_MOTION_DOT":-2.4e-7,"MEAN_MOTION_DDOT":0},{"OBJECT_NAME":"ONEWEB-0276","OBJECT_ID":"2021-060AD","EPOCH":"2025-11-08T04:30:01.289088","MEAN_MOTION":13.16595271,"ECCENTRICITY":0.0002082,"INCLINATION":87.9003,"RA_OF_ASC_NODE":272.79,"ARG_OF_PERICENTER":80.6085,"MEAN_ANOMALY":279.5281,"EPHEMERIS_TYPE":0,"CLASSIFICATION_TYPE":"U","NORAD_CAT_ID":48994,"ELEMENT_SET_NO":999,"REV_AT_EPOCH":21049,"BSTAR":0.00031791,"MEAN_MOTION_DOT":1.34e-6,"MEAN_MOTION_DDOT":0},{"OBJECT_NAME":"ONEWEB-0277","OBJECT_ID":"2021-060AE","EPOCH":"2025-11-08T02:58:52.907808","MEAN_MOTION":13.16597124,"ECCENTRICITY":0.0001908,"INCLINATION":87.8993,"RA_OF_ASC_NODE":272.8306,"ARG_OF_PERICENTER":89.6345,"MEAN_ANOMALY":270.5004,"EPHEMERIS_TYPE":0,"CLASSIFICATION_TYPE":"U","NORAD_CAT_ID":48995,"ELEMENT_SET_NO":999,"REV_AT_EPOCH":21047,"BSTAR":0.00018426,"MEAN_MOTION_DOT":8.3e-7,"MEAN_MOTION_DDOT":0},{"OBJECT_NAME":"ONEWEB-0278","OBJECT_ID":"2021-060AF","EPOCH":"2025-11-08T04:34:35.844096","MEAN_MOTION":13.16592347,"ECCENTRICITY":0.0001919,"INCLINATION":87.9003,"RA_OF_ASC_NODE":272.7861,"ARG_OF_PERICENTER":75.9659,"MEAN_ANOMALY":284.1685,"EPHEMERIS_TYPE":0,"CLASSIFICATION_TYPE":"U","NORAD_CAT_ID":48996,"ELEMENT_SET_NO":999,"REV_AT_EPOCH":21061,"BSTAR":0.0001941,"MEAN_MOTION_DOT":8.7e-7,"MEAN_MOTION_DDOT":0},{"OBJECT_NAME":"ONEWEB-0279","OBJECT_ID":"2021-060AG","EPOCH":"2025-11-07T21:28:14.916576","MEAN_MOTION":13.16594042,"ECCENTRICITY":0.0001978,"INCLINATION":87.901,"RA_OF_ASC_NODE":272.8417,"ARG_OF_PERICENTER":91.3133,"MEAN_ANOMALY":268.8225,"EPHEMERIS_TYPE":0,"CLASSIFICATION_TYPE":"U","NORAD_CAT_ID":48997,"ELEMENT_SET_NO":999,"REV_AT_EPOCH":21050,"BSTAR":0.00015649,"MEAN_MOTION_DOT":7.3e-7,"MEAN_MOTION_DDOT":0},{"OBJECT_NAME":"ONEWEB-0280","OBJECT_ID":"2021-060AH","EPOCH":"2025-11-07T21:49:55.276320","MEAN_MOTION":13.16595961,"ECCENTRICITY":0.0002279,"INCLINATION":87.9007,"RA_OF_ASC_NODE":272.8456,"ARG_OF_PERICENTER":77.9541,"MEAN_ANOMALY":282.1846,"EPHEMERIS_TYPE":0,"CLASSIFICATION_TYPE":"U","NORAD_CAT_ID":48998,"ELEMENT_SET_NO":999,"REV_AT_EPOCH":21044,"BSTAR":0.00012356,"MEAN_MOTION_DOT":6.0e-7,"MEAN_MOTION_DDOT":0},{"OBJECT_NAME":"ONEWEB-0281","OBJECT_ID":"2021-060AJ","EPOCH":"2025-11-08T03:26:11.952960","MEAN_MOTION":13.16594497,"ECCENTRICITY":0.0001815,"INCLINATION":87.9006,"RA_OF_ASC_NODE":272.7946,"ARG_OF_PERICENTER":84.1802,"MEAN_ANOMALY":275.9536,"EPHEMERIS_TYPE":0,"CLASSIFICATION_TYPE":"U","NORAD_CAT_ID":48999,"ELEMENT_SET_NO":999,"REV_AT_EPOCH":21054,"BSTAR":4.2146e-5,"MEAN_MOTION_DOT":2.9e-7,"MEAN_MOTION_DDOT":0},{"OBJECT_NAME":"ONEWEB-0282","OBJECT_ID":"2021-060AK","EPOCH":"2025-11-08T04:09:31.189824","MEAN_MOTION":13.16594972,"ECCENTRICITY":0.0002064,"INCLINATION":87.9001,"RA_OF_ASC_NODE":272.7998,"ARG_OF_PERICENTER":84.4977,"MEAN_ANOMALY":275.6389,"EPHEMERIS_TYPE":0,"CLASSIFICATION_TYPE":"U","NORAD_CAT_ID":49000,"ELEMENT_SET_NO":999,"REV_AT_EPOCH":21052,"BSTAR":1.456e-5,"MEAN_MOTION_DOT":1.8e-7,"MEAN_MOTION_DDOT":0},{"OBJECT_NAME":"ONEWEB-0283","OBJECT_ID":"2021-060AL","EPOCH":"2025-11-08T03:53:33.535680","MEAN_MOTION":13.16594226,"ECCENTRICITY":0.0002,"INCLINATION":87.9002,"RA_OF_ASC_NODE":272.8024,"ARG_OF_PERICENTER":87.349,"MEAN_ANOMALY":272.787,"EPHEMERIS_TYPE":0,"CLASSIFICATION_TYPE":"U","NORAD_CAT_ID":49001,"ELEMENT_SET_NO":999,"REV_AT_EPOCH":21053,"BSTAR":0.00010597,"MEAN_MOTION_DOT":5.3e-7,"MEAN_MOTION_DDOT":0},{"OBJECT_NAME":"ONEWEB-0284","OBJECT_ID":"2021-060AM","EPOCH":"2025-11-08T03:44:26.477664","MEAN_MOTION":13.16595558,"ECCENTRICITY":0.0002177,"INCLINATION":87.9012,"RA_OF_ASC_NODE":272.7904,"ARG_OF_PERICENTER":74.9983,"MEAN_ANOMALY":285.1388,"EPHEMERIS_TYPE":0,"CLASSIFICATION_TYPE":"U","NORAD_CAT_ID":49002,"ELEMENT_SET_NO":999,"REV_AT_EPOCH":21051,"BSTAR":4.313e-5,"MEAN_MOTION_DOT":2.9e-7,"MEAN_MOTION_DDOT":0},{"OBJECT_NAME":"ONEWEB-0285","OBJECT_ID":"2021-075A","EPOCH":"2025-11-07T23:20:25.289088","MEAN_MOTION":13.1244352,"ECCENTRICITY":0.00018,"INCLINATION":87.8975,"RA_OF_ASC_NODE":34.6046,"ARG_OF_PERICENTER":100.708,"MEAN_ANOMALY":259.4252,"EPHEMERIS_TYPE":0,"CLASSIFICATION_TYPE":"U","NORAD_CAT_ID":49075,"ELEMENT_SET_NO":999,"REV_AT_EPOCH":20619,"BSTAR":-0.00081415,"MEAN_MOTION_DOT":-2.8e-6,"MEAN_MOTION_DDOT":0},{"OBJECT_NAME":"ONEWEB-0286","OBJECT_ID":"2021-075B","EPOCH":"2025-11-08T04:23:40.451712","MEAN_MOTION":13.12453628,"ECCENTRICITY":0.000164,"INCLINATION":87.8967,"RA_OF_ASC_NODE":34.5983,"ARG_OF_PERICENTER":99.3824,"MEAN_ANOMALY":260.749,"EPHEMERIS_TYPE":0,"CLASSIFICATION_TYPE":"U","NORAD_CAT_ID":49076,"ELEMENT_SET_NO":999,"REV_AT_EPOCH":20557,"BSTAR":0.0013399,"MEAN_MOTION_DOT":4.95e-6,"MEAN_MOTION_DDOT":0},{"OBJECT_NAME":"ONEWEB-0287","OBJECT_ID":"2021-075C","EPOCH":"2025-11-07T17:40:58.821888","MEAN_MOTION":13.17651339,"ECCENTRICITY":0.0001243,"INCLINATION":87.9137,"RA_OF_ASC_NODE":49.8995,"ARG_OF_PERICENTER":92.0399,"MEAN_ANOMALY":268.0875,"EPHEMERIS_TYPE":0,"CLASSIFICATION_TYPE":"U","NORAD_CAT_ID":49077,"ELEMENT_SET_NO":999,"REV_AT_EPOCH":20446,"BSTAR":7.4786e-5,"MEAN_MOTION_DOT":4.2e-7,"MEAN_MOTION_DDOT":0},{"OBJECT_NAME":"ONEWEB-0288","OBJECT_ID":"2021-075D","EPOCH":"2025-11-08T03:48:51.170976","MEAN_MOTION":13.12441061,"ECCENTRICITY":0.0001777,"INCLINATION":87.8975,"RA_OF_ASC_NODE":34.5628,"ARG_OF_PERICENTER":96.7856,"MEAN_ANOMALY":263.3474,"EPHEMERIS_TYPE":0,"CLASSIFICATION_TYPE":"U","NORAD_CAT_ID":49078,"ELEMENT_SET_NO":999,"REV_AT_EPOCH":20619,"BSTAR":0.00096068,"MEAN_MOTION_DOT":3.58e-6,"MEAN_MOTION_DDOT":0},{"OBJECT_NAME":"ONEWEB-0289","OBJECT_ID":"2021-075E","EPOCH":"2025-11-07T16:47:19.385088","MEAN_MOTION":13.17650176,"ECCENTRICITY":0.0002014,"INCLINATION":87.9125,"RA_OF_ASC_NODE":49.9258,"ARG_OF_PERICENTER":92.1209,"MEAN_ANOMALY":268.0153,"EPHEMERIS_TYPE":0,"CLASSIFICATION_TYPE":"U","NORAD_CAT_ID":49079,"ELEMENT_SET_NO":999,"REV_AT_EPOCH":20503,"BSTAR":6.3307e-5,"MEAN_MOTION_DOT":3.7e-7,"MEAN_MOTION_DDOT":0},{"OBJECT_NAME":"ONEWEB-0290","OBJECT_ID":"2021-075F","EPOCH":"2025-11-07T23:26:01.472352","MEAN_MOTION":13.17651354,"ECCENTRICITY":0.0002304,"INCLINATION":87.9143,"RA_OF_ASC_NODE":49.8297,"ARG_OF_PERICENTER":96.9946,"MEAN_ANOMALY":263.1448,"EPHEMERIS_TYPE":0,"CLASSIFICATION_TYPE":"U","NORAD_CAT_ID":49080,"ELEMENT_SET_NO":999,"REV_AT_EPOCH":20448,"BSTAR":0.00038992,"MEAN_MOTION_DOT":1.64e-6,"MEAN_MOTION_DDOT":0},{"OBJECT_NAME":"ONEWEB-0291","OBJECT_ID":"2021-075G","EPOCH":"2025-11-08T00:53:30.532416","MEAN_MOTION":13.17703467,"ECCENTRICITY":0.000214,"INCLINATION":87.914,"RA_OF_ASC_NODE":49.8242,"ARG_OF_PERICENTER":74.1625,"MEAN_ANOMALY":285.9742,"EPHEMERIS_TYPE":0,"CLASSIFICATION_TYPE":"U","NORAD_CAT_ID":49081,"ELEMENT_SET_NO":999,"REV_AT_EPOCH":20448,"BSTAR":-0.024784,"MEAN_MOTION_DOT":-9.607e-5,"MEAN_MOTION_DDOT":0},{"OBJECT_NAME":"ONEWEB-0293","OBJECT_ID":"2021-075H","EPOCH":"2025-11-07T20:01:53.899968","MEAN_MOTION":13.17652906,"ECCENTRICITY":0.0001812,"INCLINATION":87.913,"RA_OF_ASC_NODE":49.8884,"ARG_OF_PERICENTER":98.446,"MEAN_ANOMALY":261.6877,"EPHEMERIS_TYPE":0,"CLASSIFICATION_TYPE":"U","NORAD_CAT_ID":49082,"ELEMENT_SET_NO":999,"REV_AT_EPOCH":20448,"BSTAR":0.00067271,"MEAN_MOTION_DOT":2.74e-6,"MEAN_MOTION_DDOT":0},{"OBJECT_NAME":"ONEWEB-0294","OBJECT_ID":"2021-075J","EPOCH":"2025-11-07T22:28:50.748672","MEAN_MOTION":13.12441154,"ECCENTRICITY":0.0002135,"INCLINATION":87.8977,"RA_OF_ASC_NODE":34.6073,"ARG_OF_PERICENTER":91.3211,"MEAN_ANOMALY":268.8163,"EPHEMERIS_TYPE":0,"CLASSIFICATION_TYPE":"U","NORAD_CAT_ID":49083,"ELEMENT_SET_NO":999,"REV_AT_EPOCH":20555,"BSTAR":0.0001666,"MEAN_MOTION_DOT":7.3e-7,"MEAN_MOTION_DDOT":0},{"OBJECT_NAME":"ONEWEB-0295","OBJECT_ID":"2021-075K","EPOCH":"2025-11-07T20:00:41.687712","MEAN_MOTION":13.17649832,"ECCENTRICITY":0.0001527,"INCLINATION":87.9136,"RA_OF_ASC_NODE":49.8942,"ARG_OF_PERICENTER":88.1479,"MEAN_ANOMALY":271.9828,"EPHEMERIS_TYPE":0,"CLASSIFICATION_TYPE":"U","NORAD_CAT_ID":49084,"ELEMENT_SET_NO":999,"REV_AT_EPOCH":20444,"BSTAR":0.00015902,"MEAN_MOTION_DOT":7.5e-7,"MEAN_MOTION_DDOT":0},{"OBJECT_NAME":"ONEWEB-0296","OBJECT_ID":"2021-075L","EPOCH":"2025-11-07T12:51:56.173248","MEAN_MOTION":13.12443257,"ECCENTRICITY":0.0001753,"INCLINATION":87.8977,"RA_OF_ASC_NODE":34.6927,"ARG_OF_PERICENTER":85.3012,"MEAN_ANOMALY":274.8317,"EPHEMERIS_TYPE":0,"CLASSIFICATION_TYPE":"U","NORAD_CAT_ID":49085,"ELEMENT_SET_NO":999,"REV_AT_EPOCH":20550,"BSTAR":0.0014682,"MEAN_MOTION_DOT":5.41e-6,"MEAN_MOTION_DDOT":0},{"OBJECT_NAME":"ONEWEB-0297","OBJECT_ID":"2021-075M","EPOCH":"2025-11-07T22:45:11.174400","MEAN_MOTION":13.12441039,"ECCENTRICITY":0.000168,"INCLINATION":87.8966,"RA_OF_ASC_NODE":34.6444,"ARG_OF_PERICENTER":100.1514,"MEAN_ANOMALY":259.9804,"EPHEMERIS_TYPE":0,"CLASSIFICATION_TYPE":"U","NORAD_CAT_ID":49086,"ELEMENT_SET_NO":999,"REV_AT_EPOCH":20616,"BSTAR":-0.00076971,"MEAN_MOTION_DOT":-2.64e-6,"MEAN_MOTION_DDOT":0},{"OBJECT_NAME":"ONEWEB-0298","OBJECT_ID":"2021-075N","EPOCH":"2025-11-07T16:28:15.786048","MEAN_MOTION":13.17651037,"ECCENTRICITY":0.0001691,"INCLINATION":87.9129,"RA_OF_ASC_NODE":49.9187,"ARG_OF_PERICENTER":103.3187,"MEAN_ANOMALY":256.8133,"EPHEMERIS_TYPE":0,"CLASSIFICATION_TYPE":"U","NORAD_CAT_ID":49087,"ELEMENT_SET_NO":999,"REV_AT_EPOCH":20445,"BSTAR":4.1742e-5,"MEAN_MOTION_DOT":2.9e-7,"MEAN_MOTION_DDOT":0},{"OBJECT_NAME":"ONEWEB-0299","OBJECT_ID":"2021-075P","EPOCH":"2025-11-07T20:09:12.555360","MEAN_MOTION":13.17644976,"ECCENTRICITY":0.0001791,"INCLINATION":87.9159,"RA_OF_ASC_NODE":49.8475,"ARG_OF_PERICENTER":97.5302,"MEAN_ANOMALY":262.6033,"EPHEMERIS_TYPE":0,"CLASSIFICATION_TYPE":"U","NORAD_CAT_ID":49088,"ELEMENT_SET_NO":999,"REV_AT_EPOCH":20445,"BSTAR":-0.0018473,"MEAN_MOTION_DOT":-7.04e-6,"MEAN_MOTION_DDOT":0}]
